MERAH PUTIH 2           
1 58995U 24035A   26095.83866047 -.00000356  00000+0  00000+0 0  9997
2 58995   0.0153 135.8985 0001422 276.3631 196.7450  1.00272064  7868
TJS-11                  
1 59020U 24037A   26095.84568931 -.00000369  00000+0  00000+0 0  9995
2 59020   4.2963 326.1804 0006028  68.4449 224.2407  1.00268325  7855
HULIANWAN GAOGUI-01 (H*)
1 59069U 24040A   26095.82295563  .00000158  00000+0  00000+0 0  9993
2 59069   0.0668 317.9997 0004252  59.4497 146.5497  1.00270121  6609
EUTELSAT 36D            
1 59346U 24059A   26095.68080311  .00000157  00000+0  00000+0 0  9997
2 59346   0.0177 166.8107 0000731 281.5051  26.6200  1.00272305  7425
PAKSAT-MM1              
1 59915U 24104A   26095.82382229  .00000155  00000+0  00000+0 0  9997
2 59915   0.0050 208.2374 0002511 167.3580 153.3014  1.00272066  6806
EKRAN 2 DEB             
1 59987U 77092N   26087.85090471 -.00000348  00000+0  00000+0 0  9994
2 59987   4.3328 275.0243 0011951 222.1959 100.9366  1.00179511 62301
ASTRA 1P (SES-24)       
1 60086U 24115A   26095.82009561  .00000121  00000+0  00000+0 0  9998
2 60086   0.0675  26.7041 0002580 295.4577 186.3806  1.00266953  6475
GOES 19                 
1 60133U 24119A   26095.80137554 -.00000247  00000+0  00000+0 0  9997
2 60133   0.0442  41.6631 0000975  16.5716 349.1621  1.00271085  6234
ZHONGXING-3A            
1 60179U 24122A   26095.86951459 -.00000312  00000+0  00000+0 0  9998
2 60179   0.0448  20.9869 0003060  72.2796 155.5055  1.00271020  6585
TURKSAT 6A              
1 60233U 24127A   26095.61571476  .00000148  00000+0  00000+0 0  9990
2 60233   0.0352 211.1363 0001388 128.3159 118.1610  1.00269854  6281
HULIANWAN GAOGUI-02 (H*)
1 60327U 24135A   26095.25133856 -.00000172  00000+0  00000+0 0  9997
2 60327   0.0505  18.6098 0008725 337.1857  81.2994  1.00273209  6764
ZHONGXING-4A            
1 60606U 24151A   26095.83961382 -.00000362  00000+0  00000+0 0  9993
2 60606   1.5018 271.6273 0001211 107.1211 235.8699  1.00272830  6024
HULIANWAN GAOGUI-03 (H*)
1 61503U 24181A   26094.01837918 -.00000242  00000+0  00000+0 0  9996
2 61503   0.0528  21.6745 0000740 110.0044 350.1418  1.00274413  6086
DSN-3 (KIRAMEKI-3)      
1 61733U 24198A   26095.84481384 -.00000248  00000+0  00000+0 0  9999
2 61733   0.0174 197.1157 0000928 162.6000 282.6148  1.00273085  5191
KOREASAT 6A             
1 61910U 24206A   26095.76792248 -.00000360  00000+0  00000+0 0  9996
2 61910   0.0095 187.2869 0001110 188.6043 210.6261  1.00272226  5114
INTELSAT 33E DEB        
1 61994U 16053L   26095.28486255 -.00000145  00000+0  00000+0 0  9995
2 61994   1.3986  86.4910 0025377 210.9910 149.5835  1.00489207  5362
INTELSAT 33E DEB        
1 61998U 16053Q   26094.77420499 -.00000183  00000+0  00000+0 0  9992
2 61998   1.3692  83.9852 0029449 282.6309  77.7921  1.00398317  5368
