[{"OBJECT_NAME":"MERAH PUTIH 2","OBJECT_ID":"2024-035A","EPOCH":"2026-04-05T20:07:40.264608","MEAN_MOTION":1.00272064,"ECCENTRICITY":0.0001422,"INCLINATION":0.0153,"RA_OF_ASC_NODE":135.8985,"ARG_OF_PERICENTER":276.3631,"MEAN_ANOMALY":196.745,"EPHEMERIS_TYPE":0,"CLASSIFICATION_TYPE":"U","NORAD_CAT_ID":58995,"ELEMENT_SET_NO":999,"REV_AT_EPOCH":786,"BSTAR":0,"MEAN_MOTION_DOT":-3.56e-6,"MEAN_MOTION_DDOT":0},{"OBJECT_NAME":"TJS-11","OBJECT_ID":"2024-037A","EPOCH":"2026-04-05T20:17:47.556384","MEAN_MOTION":1.00268325,"ECCENTRICITY":0.0006028,"INCLINATION":4.2963,"RA_OF_ASC_NODE":326.1804,"ARG_OF_PERICENTER":68.4449,"MEAN_ANOMALY":224.2407,"EPHEMERIS_TYPE":0,"CLASSIFICATION_TYPE":"U","NORAD_CAT_ID":59020,"ELEMENT_SET_NO":999,"REV_AT_EPOCH":785,"BSTAR":0,"MEAN_MOTION_DOT":-3.69e-6,"MEAN_MOTION_DDOT":0},{"OBJECT_NAME":"HULIANWAN GAOGUI-01 (HG-01)","OBJECT_ID":"2024-040A","EPOCH":"2026-04-05T19:45:03.366432","MEAN_MOTION":1.00270121,"ECCENTRICITY":0.0004252,"INCLINATION":0.0668,"RA_OF_ASC_NODE":317.9997,"ARG_OF_PERICENTER":59.4497,"MEAN_ANOMALY":146.5497,"EPHEMERIS_TYPE":0,"CLASSIFICATION_TYPE":"U","NORAD_CAT_ID":59069,"ELEMENT_SET_NO":999,"REV_AT_EPOCH":660,"BSTAR":0,"MEAN_MOTION_DOT":1.58e-6,"MEAN_MOTION_DDOT":0},{"OBJECT_NAME":"EUTELSAT 36D","OBJECT_ID":"2024-059A","EPOCH":"2026-04-05T16:20:21.388704","MEAN_MOTION":1.00272305,"ECCENTRICITY":7.31e-5,"INCLINATION":0.0177,"RA_OF_ASC_NODE":166.8107,"ARG_OF_PERICENTER":281.5051,"MEAN_ANOMALY":26.62,"EPHEMERIS_TYPE":0,"CLASSIFICATION_TYPE":"U","NORAD_CAT_ID":59346,"ELEMENT_SET_NO":999,"REV_AT_EPOCH":742,"BSTAR":0,"MEAN_MOTION_DOT":1.57e-6,"MEAN_MOTION_DDOT":0},{"OBJECT_NAME":"PAKSAT-MM1","OBJECT_ID":"2024-104A","EPOCH":"2026-04-05T19:46:18.245856","MEAN_MOTION":1.00272066,"ECCENTRICITY":0.0002511,"INCLINATION":0.005,"RA_OF_ASC_NODE":208.2374,"ARG_OF_PERICENTER":167.358,"MEAN_ANOMALY":153.3014,"EPHEMERIS_TYPE":0,"CLASSIFICATION_TYPE":"U","NORAD_CAT_ID":59915,"ELEMENT_SET_NO":999,"REV_AT_EPOCH":680,"BSTAR":0,"MEAN_MOTION_DOT":1.55e-6,"MEAN_MOTION_DDOT":0},{"OBJECT_NAME":"EKRAN 2 DEB","OBJECT_ID":"1977-092N","EPOCH":"2026-03-28T20:25:18.166944","MEAN_MOTION":1.00179511,"ECCENTRICITY":0.0011951,"INCLINATION":4.3328,"RA_OF_ASC_NODE":275.0243,"ARG_OF_PERICENTER":222.1959,"MEAN_ANOMALY":100.9366,"EPHEMERIS_TYPE":0,"CLASSIFICATION_TYPE":"U","NORAD_CAT_ID":59987,"ELEMENT_SET_NO":999,"REV_AT_EPOCH":6230,"BSTAR":0,"MEAN_MOTION_DOT":-3.48e-6,"MEAN_MOTION_DDOT":0},{"OBJECT_NAME":"ASTRA 1P (SES-24)","OBJECT_ID":"2024-115A","EPOCH":"2026-04-05T19:40:56.260704","MEAN_MOTION":1.00266953,"ECCENTRICITY":0.000258,"INCLINATION":0.0675,"RA_OF_ASC_NODE":26.7041,"ARG_OF_PERICENTER":295.4577,"MEAN_ANOMALY":186.3806,"EPHEMERIS_TYPE":0,"CLASSIFICATION_TYPE":"U","NORAD_CAT_ID":60086,"ELEMENT_SET_NO":999,"REV_AT_EPOCH":647,"BSTAR":0,"MEAN_MOTION_DOT":1.21e-6,"MEAN_MOTION_DDOT":0},{"OBJECT_NAME":"GOES 19","OBJECT_ID":"2024-119A","EPOCH":"2026-04-05T19:13:58.846656","MEAN_MOTION":1.00271085,"ECCENTRICITY":9.75e-5,"INCLINATION":0.0442,"RA_OF_ASC_NODE":41.6631,"ARG_OF_PERICENTER":16.5716,"MEAN_ANOMALY":349.1621,"EPHEMERIS_TYPE":0,"CLASSIFICATION_TYPE":"U","NORAD_CAT_ID":60133,"ELEMENT_SET_NO":999,"REV_AT_EPOCH":623,"BSTAR":0,"MEAN_MOTION_DOT":-2.47e-6,"MEAN_MOTION_DDOT":0},{"OBJECT_NAME":"ZHONGXING-3A","OBJECT_ID":"2024-122A","EPOCH":"2026-04-05T20:52:06.060576","MEAN_MOTION":1.0027102,"ECCENTRICITY":0.000306,"INCLINATION":0.0448,"RA_OF_ASC_NODE":20.9869,"ARG_OF_PERICENTER":72.2796,"MEAN_ANOMALY":155.5055,"EPHEMERIS_TYPE":0,"CLASSIFICATION_TYPE":"U","NORAD_CAT_ID":60179,"ELEMENT_SET_NO":999,"REV_AT_EPOCH":658,"BSTAR":0,"MEAN_MOTION_DOT":-3.12e-6,"MEAN_MOTION_DDOT":0},{"OBJECT_NAME":"TURKSAT 6A","OBJECT_ID":"2024-127A","EPOCH":"2026-04-05T14:46:37.755264","MEAN_MOTION":1.00269854,"ECCENTRICITY":0.0001388,"INCLINATION":0.0352,"RA_OF_ASC_NODE":211.1363,"ARG_OF_PERICENTER":128.3159,"MEAN_ANOMALY":118.161,"EPHEMERIS_TYPE":0,"CLASSIFICATION_TYPE":"U","NORAD_CAT_ID":60233,"ELEMENT_SET_NO":999,"REV_AT_EPOCH":628,"BSTAR":0,"MEAN_MOTION_DOT":1.48e-6,"MEAN_MOTION_DDOT":0},{"OBJECT_NAME":"HULIANWAN GAOGUI-02 (HG-02)","OBJECT_ID":"2024-135A","EPOCH":"2026-04-05T06:01:55.651584","MEAN_MOTION":1.00273209,"ECCENTRICITY":0.0008725,"INCLINATION":0.0505,"RA_OF_ASC_NODE":18.6098,"ARG_OF_PERICENTER":337.1857,"MEAN_ANOMALY":81.2994,"EPHEMERIS_TYPE":0,"CLASSIFICATION_TYPE":"U","NORAD_CAT_ID":60327,"ELEMENT_SET_NO":999,"REV_AT_EPOCH":676,"BSTAR":0,"MEAN_MOTION_DOT":-1.72e-6,"MEAN_MOTION_DDOT":0},{"OBJECT_NAME":"ZHONGXING-4A","OBJECT_ID":"2024-151A","EPOCH":"2026-04-05T20:09:02.634048","MEAN_MOTION":1.0027283,"ECCENTRICITY":0.0001211,"INCLINATION":1.5018,"RA_OF_ASC_NODE":271.6273,"ARG_OF_PERICENTER":107.1211,"MEAN_ANOMALY":235.8699,"EPHEMERIS_TYPE":0,"CLASSIFICATION_TYPE":"U","NORAD_CAT_ID":60606,"ELEMENT_SET_NO":999,"REV_AT_EPOCH":602,"BSTAR":0,"MEAN_MOTION_DOT":-3.62e-6,"MEAN_MOTION_DDOT":0},{"OBJECT_NAME":"HULIANWAN GAOGUI-03 (HG-03)","OBJECT_ID":"2024-181A","EPOCH":"2026-04-04T00:26:27.961152","MEAN_MOTION":1.00274413,"ECCENTRICITY":7.408e-5,"INCLINATION":0.0528,"RA_OF_ASC_NODE":21.6745,"ARG_OF_PERICENTER":110.0044,"MEAN_ANOMALY":350.1418,"EPHEMERIS_TYPE":0,"CLASSIFICATION_TYPE":"U","NORAD_CAT_ID":61503,"ELEMENT_SET_NO":999,"REV_AT_EPOCH":608,"BSTAR":0,"MEAN_MOTION_DOT":-2.42e-6,"MEAN_MOTION_DDOT":0},{"OBJECT_NAME":"DSN-3 (KIRAMEKI-3)","OBJECT_ID":"2024-198A","EPOCH":"2026-04-05T20:16:31.915776","MEAN_MOTION":1.00273085,"ECCENTRICITY":9.28e-5,"INCLINATION":0.0174,"RA_OF_ASC_NODE":197.1157,"ARG_OF_PERICENTER":162.6,"MEAN_ANOMALY":282.6148,"EPHEMERIS_TYPE":0,"CLASSIFICATION_TYPE":"U","NORAD_CAT_ID":61733,"ELEMENT_SET_NO":999,"REV_AT_EPOCH":519,"BSTAR":0,"MEAN_MOTION_DOT":-2.48e-6,"MEAN_MOTION_DDOT":0},{"OBJECT_NAME":"KOREASAT 6A","OBJECT_ID":"2024-206A","EPOCH":"2026-04-05T18:25:48.502272","MEAN_MOTION":1.00272226,"ECCENTRICITY":0.000111,"INCLINATION":0.0095,"RA_OF_ASC_NODE":187.2869,"ARG_OF_PERICENTER":188.6043,"MEAN_ANOMALY":210.6261,"EPHEMERIS_TYPE":0,"CLASSIFICATION_TYPE":"U","NORAD_CAT_ID":61910,"ELEMENT_SET_NO":999,"REV_AT_EPOCH":511,"BSTAR":0,"MEAN_MOTION_DOT":-3.6e-6,"MEAN_MOTION_DDOT":0},{"OBJECT_NAME":"INTELSAT 33E DEB","OBJECT_ID":"2016-053L","EPOCH":"2026-04-05T06:50:12.124320","MEAN_MOTION":1.00489207,"ECCENTRICITY":0.00253773,"INCLINATION":1.3986,"RA_OF_ASC_NODE":86.491,"ARG_OF_PERICENTER":210.991,"MEAN_ANOMALY":149.5835,"EPHEMERIS_TYPE":0,"CLASSIFICATION_TYPE":"U","NORAD_CAT_ID":61994,"ELEMENT_SET_NO":999,"REV_AT_EPOCH":536,"BSTAR":0,"MEAN_MOTION_DOT":-1.45e-6,"MEAN_MOTION_DDOT":0},{"OBJECT_NAME":"INTELSAT 33E DEB","OBJECT_ID":"2016-053Q","EPOCH":"2026-04-04T18:34:51.311136","MEAN_MOTION":1.00398317,"ECCENTRICITY":0.0029449,"INCLINATION":1.3692,"RA_OF_ASC_NODE":83.9852,"ARG_OF_PERICENTER":282.6309,"MEAN_ANOMALY":77.7921,"EPHEMERIS_TYPE":0,"CLASSIFICATION_TYPE":"U","NORAD_CAT_ID":61998,"ELEMENT_SET_NO":999,"REV_AT_EPOCH":536,"BSTAR":0,"MEAN_MOTION_DOT":-1.83e-6,"MEAN_MOTION_DDOT":0}]
